NORAD_CAT_ID,OBJECT_NAME,OBJECT_TYPE,EPOCH,MEAN_MOTION,ECCENTRICITY,INCLINATION,RA_OF_ASC_NODE,ARG_OF_PERICENTER,MEAN_ANOMALY,BSTAR,MEAN_MOTION_DOT,MEAN_MOTION_DDOT,TLE_LINE0,TLE_LINE1,TLE_LINE2,SEMIMAJOR_AXIS,PERIOD,APOGEE,PERIGEE,DECAYED
52460.0,STARLINK-3865,PAYLOAD,2022-07-19 22:00:00,15.08837076,0.0001715,53.2175,264.2071,46.1307,58.3191,-5.7844e-05,-1.208e-05,0.0,0 STARLINK-3865,1 52460U 22049K   22200.91667824 -.00001208  00000-0 -57844-4 0  9998,2 52460  53.2175 264.2071 0001715  46.1307  58.3191 15.08837076  1305,6917.889,95.438,540.941,538.568,0.0
52460.0,STARLINK-3865,PAYLOAD,2022-07-20 06:00:00,15.08885777,0.0001543,53.2113,262.7263,52.5608,63.4901,-8.9832e-06,-4.31e-06,0.0,0 STARLINK-3865,1 52460U 22049K   22201.25001157 -.00000431  00000-0 -89832-5 0  9997,2 52460  53.2113 262.7263 0001543  52.5608  63.4901 15.08885777 11855,6917.74,95.435,540.673,538.538,0.0
52460.0,STARLINK-3865,PAYLOAD,2022-07-20 14:00:01,15.08865804,0.0001747,53.212,261.2312,46.7056,80.9857,-0.0026891,-0.00042861,0.0,0 STARLINK-3865,1 52460U 22049K   22201.58334491 -.00042861  00000-0 -26891-2 0  9999,2 52460  53.2120 261.2312 0001747  46.7056  80.9857 15.08865804  1302,6917.802,95.436,540.875,538.4580000000002,0.0
52460.0,STARLINK-3865,PAYLOAD,2022-07-20 22:00:01,15.0882438,0.0001573,53.2121,259.7329,50.0439,89.3157,-0.0037436,-0.00059352,0.0,0 STARLINK-3865,1 52460U 22049K   22201.91668981 -.00059352  00000-0 -37436-2 0  9990,2 52460  53.2121 259.7329 0001573  50.0439  89.3157 15.08824380  1303,6917.928000000001,95.439,540.881,538.705,0.0
52460.0,STARLINK-3865,PAYLOAD,2022-07-21 14:00:01,15.08773927,0.00018,53.2123,256.7416,45.4219,117.0233,0.0043311999999999,0.00069195,0.0,0 STARLINK-3865,1 52460U 22049K   22202.58335648  .00069195  00000-0  43312-2 0  9999,2 52460  53.2123 256.7416 0001800  45.4219 117.0233 15.08773927  1300,6918.081999999999,95.442,541.193,538.702,0.0
52460.0,STARLINK-3865,PAYLOAD,2022-07-21 22:00:00,15.08820235,0.0001715,53.2125,255.2435,51.1823,122.7472,0.0017745999999999,0.00028052,0.0,0 STARLINK-3865,1 52460U 22049K   22202.91667824  .00028052  00000-0  17746-2 0  9999,2 52460  53.2125 255.2435 0001715  51.1823 122.7472 15.08820235  1300,6917.941,95.439,540.992,538.619,0.0
52460.0,STARLINK-3865,PAYLOAD,2022-07-22 06:00:00,15.08858007,0.0001808,53.2127,253.7473,53.9937,131.5154,-0.0011087999999999,-0.000179,0.0,0 STARLINK-3865,1 52460U 22049K   22203.25001157 -.00017900  00000-0 -11088-2 0  9993,2 52460  53.2127 253.7473 0001808  53.9937 131.5154 15.08858007  1309,6917.825,95.436,540.941,538.44,0.0
52460.0,STARLINK-3865,PAYLOAD,2022-07-22 22:00:00,15.08854626,0.0001817,53.2129,250.7539,52.591,156.1517,0.00044213,6.758e-05,0.0,0 STARLINK-3865,1 52460U 22049K   22203.91667824  .00006758  00000-0  44213-3 0  9999,2 52460  53.2129 250.7539 0001817  52.5910 156.1517 15.08854626  1306,6917.8359999999975,95.437,540.9580000000002,538.444,0.0
52460.0,STARLINK-3865,PAYLOAD,2022-07-23 14:00:01,15.08816275,0.000207,53.2128,247.7626,50.1353,181.8901,0.0029629,0.00047152,0.0,0 STARLINK-3865,1 52460U 22049K   22204.58335648  .00047152  00000-0  29629-2 0  9995,2 52460  53.2128 247.7626 0002070  50.1353 181.8901 15.08816275  1305,6917.953,95.439,541.25,538.386,0.0
52460.0,STARLINK-3865,PAYLOAD,2022-07-23 16:00:00,15.08842788,0.0002031,53.2127,247.3872,50.0807,274.7713,-8.785e-05,-1.686e-05,0.0,0 STARLINK-3865,1 52460U 22049K   22204.66667824 -.00001686  00000-0 -87850-4 0  9994,2 52460  53.2127 247.3872 0002031  50.0807 274.7713 15.08842788 12373,6917.871999999999,95.437,541.1419999999998,538.332,0.0
52460.0,STARLINK-3865,PAYLOAD,2022-07-23 22:00:00,15.08828691,0.0001902,53.2129,246.2644,55.2846,188.2738,0.0016215999999999,0.00025606,0.0,0 STARLINK-3865,1 52460U 22049K   22204.91667824  .00025606  00000-0  16216-2 0  9994,2 52460  53.2129 246.2644 0001902  55.2846 188.2738 15.08828691  1300,6917.915,95.438,541.096,538.464,0.0
52460.0,STARLINK-3865,PAYLOAD,2022-07-24 14:00:01,15.08833379,0.0002032999999999,53.2125,243.2733,50.6309,216.1272,0.0018612,0.00029452,0.0,0 STARLINK-3865,1 52460U 22049K   22205.58334491  .00029452  00000-0  18612-2 0  9994,2 52460  53.2125 243.2733 0002033  50.6309 216.1272 15.08833379  1304,6917.901,95.438,541.172,538.359,0.0
52460.0,STARLINK-3865,PAYLOAD,2022-07-24 22:00:00,15.08825218,0.0001818,53.2125,241.775,55.1449,223.2248,0.00011389,1.524e-05,0.0,0 STARLINK-3865,1 52460U 22049K   22205.91667824  .00001524  00000-0  11389-3 0  9995,2 52460  53.2125 241.7750 0001818  55.1449 223.2248 15.08825218  1306,6917.926,95.438,541.048,538.533,0.0
52460.0,STARLINK-3865,PAYLOAD,2022-07-25 14:00:01,15.08812264,0.0001943,53.2118,238.7839,49.6045,251.9233,0.0017304,0.00027338,0.0,0 STARLINK-3865,1 52460U 22049K   22206.58334491  .00027338  00000-0  17304-2 0  9993,2 52460  53.2118 238.7839 0001943  49.6045 251.9233 15.08812264  1300,6917.965,95.439,541.174,538.486,0.0
52460.0,STARLINK-3865,PAYLOAD,2022-07-25 22:00:00,15.08805688,0.0001789,53.2117,237.2858,56.115,256.9972,0.0023398,0.00037112,0.0,0 STARLINK-3865,1 52460U 22049K   22206.91667824  .00037112  00000-0  23398-2 0  9990,2 52460  53.2117 237.2858 0001789  56.1150 256.9972 15.08805688  1309,6917.985,95.44,541.0880000000002,538.613,0.0
52460.0,STARLINK-3865,PAYLOAD,2022-07-26 06:00:00,15.08843534,0.0001874,53.2116,235.7903,55.3115,269.367,-0.0019189,-0.00030701,0.0,0 STARLINK-3865,1 52460U 22049K   22207.25001157 -.00030701  00000-0 -19189-2 0  9991,2 52460  53.2116 235.7903 0001874  55.3115 269.3670 15.08843534 12766,6917.87,95.437,541.031,538.438,0.0
52460.0,STARLINK-3865,PAYLOAD,2022-07-26 14:00:01,15.08820388,0.0001955,53.21100000000001,234.2946,50.4608,285.8043,0.0012178,0.00019136,0.0,0 STARLINK-3865,1 52460U 22049K   22207.58334491  .00019136  00000-0  12178-2 0  9995,2 52460  53.2110 234.2946 0001955  50.4608 285.8043 15.08820388  1301,6917.94,95.439,541.158,538.453,0.0
52460.0,STARLINK-3865,PAYLOAD,2022-07-26 22:00:00,15.08806436,0.0001821,53.2109,232.7963,57.1607,290.6941,0.0026326,0.00041821,0.0,0 STARLINK-3865,1 52460U 22049K   22207.91667824  .00041821  00000-0  26326-2 0  9997,2 52460  53.2109 232.7963 0001821  57.1607 290.6941 15.08806436  1305,6917.983,95.44,541.1080000000002,538.5880000000002,0.0
52460.0,STARLINK-3865,PAYLOAD,2022-07-27 14:00:01,15.08827435,0.0002005999999999,53.2111,229.8049,50.6524,320.3614,0.00074753,0.00011625,0.0,0 STARLINK-3865,1 52460U 22049K   22208.58334491  .00011625  00000-0  74753-3 0  9999,2 52460  53.2111 229.8049 0002006  50.6524 320.3614 15.08827435  1302,6917.919,95.438,541.172,538.396,0.0
52460.0,STARLINK-3865,PAYLOAD,2022-07-27 16:00:00,15.08845764,0.0001996,53.2113,229.4303,52.0902,51.8149,-0.0017055,-0.00027334,0.0,0 STARLINK-3865,1 52460U 22049K   22208.66667824 -.00027334  00000-0 -17055-2 0  9994,2 52460  53.2113 229.4303 0001996  52.0902  51.8149 15.08845764 12975,6917.863,95.437,541.109,538.347,0.0
52460.0,STARLINK-3865,PAYLOAD,2022-07-27 22:00:00,15.08810037,0.000188,53.2118,228.3066,57.1063,325.5037,0.0028206999999999,0.00044853,0.0,0 STARLINK-3865,1 52460U 22049K   22208.91667824  .00044853  00000-0  28207-2 0  9996,2 52460  53.2118 228.3066 0001880  57.1063 325.5037 15.08810037  1307,6917.972,95.439,541.138,538.536,0.0
52460.0,STARLINK-3865,PAYLOAD,2022-07-28 08:00:01,15.08839455,0.0002089,53.2125,226.4376,53.9849,73.1027,-0.00091042,-0.00014749,0.0,0 STARLINK-3865,1 52460U 22049K   22209.33334491 -.00014749  00000-0 -91042-3 0  9995,2 52460  53.2125 226.4376 0002089  53.9849  73.1027 15.08839455 13073,6917.882,95.438,541.192,538.302,0.0
52460.0,STARLINK-3865,PAYLOAD,2022-07-28 14:00:01,15.08839408,0.0002088,53.2123,225.3152,50.9658,354.8148,0.00059799,9.242e-05,0.0,0 STARLINK-3865,1 52460U 22049K   22209.58334491  .00009242  00000-0  59799-3 0  9995,2 52460  53.2123 225.3152 0002088  50.9658 354.8148 15.08839408  1309,6917.882,95.438,541.192,538.303,0.0
52460.0,STARLINK-3865,PAYLOAD,2022-07-28 22:00:00,15.0882082,0.0001963,53.2125,223.8169,57.2303,0.1574,0.0030128,0.00047963,0.0,0 STARLINK-3865,1 52460U 22049K   22209.91667824  .00047963  00000-0  30128-2 0  9997,2 52460  53.2125 223.8169 0001963  57.2303   0.1574 15.08820820  1302,6917.939,95.439,541.1619999999998,538.446,0.0
52460.0,STARLINK-3865,PAYLOAD,2022-07-29 00:00:00,15.08835612,0.0002014,53.2129,223.4421,58.8377,91.4431,0.0018942,0.00029984,0.0,0 STARLINK-3865,1 52460U 22049K   22210.00001157  .00029984  00000-0  18942-2 0  9993,2 52460  53.2129 223.4421 0002014  58.8377  91.4431 15.08835612 13177,6917.894,95.438,541.1519999999998,538.366,0.0
52460.0,STARLINK-3865,PAYLOAD,2022-07-29 14:00:01,15.08846076,0.0002186999999999,53.2127,220.8254,51.425,29.1396,-3.2818e-05,-8.11e-06,0.0,0 STARLINK-3865,1 52460U 22049K   22210.58334491 -.00000811  00000-0 -32818-4 0  9996,2 52460  53.2127 220.8254 0002187  51.4250  29.1396 15.08846076  1306,6917.861999999999,95.437,541.24,538.214,0.0
52460.0,STARLINK-3865,PAYLOAD,2022-07-29 22:00:00,15.0882369,0.0002058,53.2131,219.3272,57.4676,34.7061,0.0026249,0.00041717,0.0,0 STARLINK-3865,1 52460U 22049K   22210.91667824  .00041717  00000-0  26249-2 0  9999,2 52460  53.2131 219.3272 0002058  57.4676  34.7061 15.08823690  1307,6917.93,95.439,541.219,538.372,0.0
52460.0,STARLINK-3865,PAYLOAD,2022-07-30 14:00:01,15.08855003,0.0002259,53.2133,216.3356,52.6064,62.76300000000001,-0.00053342,-8.772e-05,0.0,0 STARLINK-3865,1 52460U 22049K   22211.58334491 -.00008772  00000-0 -53342-3 0  9995,2 52460  53.2133 216.3356 0002259  52.6064  62.7630 15.08855003  1306,6917.835,95.437,541.262,538.137,0.0
52460.0,STARLINK-3865,PAYLOAD,2022-07-30 22:00:00,15.08831229,0.0002124,53.2137,214.8376,58.6702,68.3142,0.0023616999999999,0.0003748999999999,0.0,0 STARLINK-3865,1 52460U 22049K   22211.91667824  .00037490  00000-0  23617-2 0  9999,2 52460  53.2137 214.8376 0002124  58.6702  68.3142 15.08831229  1305,6917.906999999997,95.438,541.242,538.303,0.0
